[{"OBJECT_NAME":"STARLINK-34299","OBJECT_ID":"2025-127P","EPOCH":"2026-03-09T15:08:24.267552","MEAN_MOTION":15.27595363,"ECCENTRICITY":0.0001039,"INCLINATION":43.0018,"RA_OF_ASC_NODE":180.5051,"ARG_OF_PERICENTER":257.5852,"MEAN_ANOMALY":102.4884,"EPHEMERIS_TYPE":0,"CLASSIFICATION_TYPE":"U","NORAD_CAT_ID":64383,"ELEMENT_SET_NO":999,"REV_AT_EPOCH":4240,"BSTAR":0.0014171387,"MEAN_MOTION_DOT":0.00038959,"MEAN_MOTION_DDOT":0},{"OBJECT_NAME":"TRANSPORTER-1 OBJECT Z","OBJECT_ID":"2021-006Z","EPOCH":"2026-03-09T22:55:57.522432","MEAN_MOTION":15.30965056,"ECCENTRICITY":0.00100878,"INCLINATION":97.2377,"RA_OF_ASC_NODE":113.4736,"ARG_OF_PERICENTER":179.6869,"MEAN_ANOMALY":180.438,"EPHEMERIS_TYPE":0,"CLASSIFICATION_TYPE":"U","NORAD_CAT_ID":47436,"ELEMENT_SET_NO":999,"REV_AT_EPOCH":28420,"BSTAR":0.00024088983,"MEAN_MOTION_DOT":7.143e-5,"MEAN_MOTION_DDOT":0}]
